{
    "links": {
        "self": "http://www.neowsapp.com/rest/v1/neo/3550045?api_key=iIulBulltgU6a56xZRHN4H3l9WmuAYTsLGpBGhQ2"
    },
    "id": "3550045",
    "neo_reference_id": "3550045",
    "name": "(2010 UB7)",
    "designation": "2010 UB7",
    "nasa_jpl_url": "http://ssd.jpl.nasa.gov/sbdb.cgi?sstr=3550045",
    "absolute_magnitude_h": 22.2,
    "estimated_diameter": {
        "kilometers": {
            "estimated_diameter_min": 0.096506147,
            "estimated_diameter_max": 0.2157943048
        },
        "meters": {
            "estimated_diameter_min": 96.5061469579,
            "estimated_diameter_max": 215.7943048444
        },
        "miles": {
            "estimated_diameter_min": 0.059966121,
            "estimated_diameter_max": 0.134088323
        },
        "feet": {
            "estimated_diameter_min": 316.6212271853,
            "estimated_diameter_max": 707.9865871058
        }
    },
    "is_potentially_hazardous_asteroid": false,
    "close_approach_data": [
        {
            "close_approach_date": "2010-10-06",
            "close_approach_date_full": "2010-Oct-06 02:27",
            "epoch_date_close_approach": 1286332020000,
            "relative_velocity": {
                "kilometers_per_second": "7.1126588616",
                "kilometers_per_hour": "25605.5719016376",
                "miles_per_hour": "15910.306607437"
            },
            "miss_distance": {
                "astronomical": "0.2347251182",
                "lunar": "91.3080709798",
                "kilometers": "35114377.718218234",
                "miles": "21819062.5507262692"
            },
            "orbiting_body": "Earth"
        },
        {
            "close_approach_date": "2017-06-30",
            "close_approach_date_full": "2017-Jun-30 16:38",
            "epoch_date_close_approach": 1498840680000,
            "relative_velocity": {
                "kilometers_per_second": "3.6955598349",
                "kilometers_per_hour": "13304.0154055657",
                "miles_per_hour": "8266.5977946416"
            },
            "miss_distance": {
                "astronomical": "1.7796619232",
                "lunar": "692.2884881248",
                "kilometers": "266233633.030823584",
                "miles": "165429908.4785660992"
            },
            "orbiting_body": "Juptr"
        },
        {
            "close_approach_date": "2032-10-04",
            "close_approach_date_full": "2032-Oct-04 17:11",
            "epoch_date_close_approach": 1980522660000,
            "relative_velocity": {
                "kilometers_per_second": "8.1272808481",
                "kilometers_per_hour": "29258.2110530658",
                "miles_per_hour": "18179.9145290563"
            },
            "miss_distance": {
                "astronomical": "0.3037865902",
                "lunar": "118.1729835878",
                "kilometers": "45445826.828482874",
                "miles": "28238727.3440327012"
            },
            "orbiting_body": "Earth"
        }
    ],
    "orbital_data": {
        "orbit_id": "13",
        "orbit_determination_date": "2017-04-06 08:56:09",
        "first_observation_date": "2010-10-28",
        "last_observation_date": "2010-12-08",
        "data_arc_in_days": 41,
        "observations_used": 39,
        "orbit_uncertainty": "6",
        "minimum_orbit_intersection": ".256227",
        "jupiter_tisserand_invariant": "3.120",
        "epoch_osculation": "2459000.5",
        "eccentricity": ".5400647218660641",
        "semi_major_axis": "2.691105694963133",
        "inclination": "11.53227120503769",
        "ascending_node_longitude": "34.325152479842",
        "orbital_period": "1612.480828522346",
        "perihelion_distance": "1.237734446300687",
        "perihelion_argument": "330.5315314027272",
        "aphelion_distance": "4.144476943625578",
        "perihelion_time": "2458679.560875055256",
        "mean_anomaly": "71.65237746484412",
        "mean_motion": ".2232584683378213",
        "equinox": "J2000",
        "orbit_class": {
            "orbit_class_type": "AMO",
            "orbit_class_description": "Near-Earth asteroid orbits similar to that of 1221 Amor",
            "orbit_class_range": "1.017 AU < q (perihelion) < 1.3 AU"
        }
    },
    "is_sentry_object": false
}